{
  "type": "FeatureCollection",
  "features": [
    {
      "type": "Feature",
      "properties": {
        "norad_id": 67018,
        "name": "STARLINK-36106",
        "group": "last-30-days",
        "lat": -7.591921123112593,
        "lon": -64.17675170452715,
        "alt_km": 305.5658802449316,
        "timestamp": "2025-12-21T09:37:21.375021+00:00",
        "meta_object_name": "STARLINK-36106",
        "meta_object_id": "2025-293R",
        "meta_epoch": "2025-12-21T04:00:01.998720",
        "meta_mean_motion": 15.90168967,
        "meta_eccentricity": 0.0004677,
        "meta_inclination": 69.9928,
        "meta_ra_of_asc_node": 299.2853,
        "meta_arg_of_pericenter": 271.979,
        "meta_mean_anomaly": 179.5363,
        "meta_ephemeris_type": 0,
        "meta_classification_type": "U",
        "meta_norad_cat_id": 67018,
        "meta_element_set_no": 999,
        "meta_rev_at_epoch": 158,
        "meta_bstar": -0.0019933,
        "meta_mean_motion_dot": -0.00604598,
        "meta_mean_motion_ddot": 0.00011685,
        "tle_line1": "1 67018U 25293R   25355.16668980 -.00604598  11685-3 -19933-2 0  9992",
        "tle_line2": "2 67018  69.9928 299.2853 0004677 271.9790 179.5363 15.90168967  1584"
      },
      "geometry": {
        "type": "Point",
        "coordinates": [
          -64.17675170452715,
          -7.591921123112593
        ]
      }
    },
    {
      "type": "Feature",
      "properties": {
        "norad_id": 67019,
        "name": "STARLINK-35688",
        "group": "last-30-days",
        "lat": -5.387958799391006,
        "lon": -63.36531233076686,
        "alt_km": 305.34641471452323,
        "timestamp": "2025-12-21T09:37:21.375030+00:00",
        "meta_object_name": "STARLINK-35688",
        "meta_object_id": "2025-293S",
        "meta_epoch": "2025-12-21T04:00:01.998720",
        "meta_mean_motion": 15.90204166,
        "meta_eccentricity": 0.0004379,
        "meta_inclination": 69.9927,
        "meta_ra_of_asc_node": 299.2825,
        "meta_arg_of_pericenter": 272.2332,
        "meta_mean_anomaly": 181.6032,
        "meta_ephemeris_type": 0,
        "meta_classification_type": "U",
        "meta_norad_cat_id": 67019,
        "meta_element_set_no": 999,
        "meta_rev_at_epoch": 166,
        "meta_bstar": -0.0019866,
        "meta_mean_motion_dot": -0.0060358,
        "meta_mean_motion_ddot": 0.00011652,
        "tle_line1": "1 67019U 25293S   25355.16668980 -.00603580  11652-3 -19866-2 0  9992",
        "tle_line2": "2 67019  69.9927 299.2825 0004379 272.2332 181.6032 15.90204166  1666"
      },
      "geometry": {
        "type": "Point",
        "coordinates": [
          -63.36531233076686,
          -5.387958799391006
        ]
      }
    },
    {
      "type": "Feature",
      "properties": {
        "norad_id": 67020,
        "name": "STARLINK-36172",
        "group": "last-30-days",
        "lat": -2.598159880506745,
        "lon": -62.34664909359759,
        "alt_km": 305.3496843657622,
        "timestamp": "2025-12-21T09:37:21.375040+00:00",
        "meta_object_name": "STARLINK-36172",
        "meta_object_id": "2025-293T",
        "meta_epoch": "2025-12-21T04:00:01.998720",
        "meta_mean_motion": 15.90462675,
        "meta_eccentricity": 0.0003945,
        "meta_inclination": 69.9926,
        "meta_ra_of_asc_node": 299.2792,
        "meta_arg_of_pericenter": 273.5513,
        "meta_mean_anomaly": 183.1812,
        "meta_ephemeris_type": 0,
        "meta_classification_type": "U",
        "meta_norad_cat_id": 67020,
        "meta_element_set_no": 999,
        "meta_rev_at_epoch": 158,
        "meta_bstar": -0.0042864,
        "meta_mean_motion_dot": -0.01312279,
        "meta_mean_motion_ddot": 0.00049166,
        "tle_line1": "1 67020U 25293T   25355.16668980 -.01312279  49166-3 -42864-2 0  9992",
        "tle_line2": "2 67020  69.9926 299.2792 0003945 273.5513 183.1812 15.90462675  1588"
      },
      "geometry": {
        "type": "Point",
        "coordinates": [
          -62.34664909359759,
          -2.598159880506745
        ]
      }
    },
    {
      "type": "Feature",
      "properties": {
        "norad_id": 67021,
        "name": "STARLINK-36184",
        "group": "last-30-days",
        "lat": -0.050295313867830295,
        "lon": -61.4210153087956,
        "alt_km": 304.7842594831927,
        "timestamp": "2025-12-21T09:37:21.375050+00:00",
        "meta_object_name": "STARLINK-36184",
        "meta_object_id": "2025-293U",
        "meta_epoch": "2025-12-21T04:00:01.998720",
        "meta_mean_motion": 15.90269307,
        "meta_eccentricity": 0.0004435,
        "meta_inclination": 69.9928,
        "meta_ra_of_asc_node": 299.2757,
        "meta_arg_of_pericenter": 272.538,
        "meta_mean_anomaly": 186.9265,
        "meta_ephemeris_type": 0,
        "meta_classification_type": "U",
        "meta_norad_cat_id": 67021,
        "meta_element_set_no": 999,
        "meta_rev_at_epoch": 158,
        "meta_bstar": -0.002023,
        "meta_mean_motion_dot": -0.00616622,
        "meta_mean_motion_ddot": 0.0001213,
        "tle_line1": "1 67021U 25293U   25355.16668980 -.00616622  12130-3 -20230-2 0  9995",
        "tle_line2": "2 67021  69.9928 299.2757 0004435 272.5380 186.9265 15.90269307  1588"
      },
      "geometry": {
        "type": "Point",
        "coordinates": [
          -61.4210153087956,
          -0.050295313867830295
        ]
      }
    },
    {
      "type": "Feature",
      "properties": {
        "norad_id": 67022,
        "name": "STARLINK-36209",
        "group": "last-30-days",
        "lat": 2.923354117803928,
        "lon": -60.340073293360405,
        "alt_km": 304.7613314684904,
        "timestamp": "2025-12-21T09:37:21.375068+00:00",
        "meta_object_name": "STARLINK-36209",
        "meta_object_id": "2025-293V",
        "meta_epoch": "2025-12-21T04:00:01.998720",
        "meta_mean_motion": 15.90530674,
        "meta_eccentricity": 0.0003937,
        "meta_inclination": 69.9927,
        "meta_ra_of_asc_node": 299.2722,
        "meta_arg_of_pericenter": 272.6811,
        "meta_mean_anomaly": 189.8725,
        "meta_ephemeris_type": 0,
        "meta_classification_type": "U",
        "meta_norad_cat_id": 67022,
        "meta_element_set_no": 999,
        "meta_rev_at_epoch": 158,
        "meta_bstar": -0.0043204,
        "meta_mean_motion_dot": -0.01327107,
        "meta_mean_motion_ddot": 0.00050229,
        "tle_line1": "1 67022U 25293V   25355.16668980 -.01327107  50229-3 -43204-2 0  9991",
        "tle_line2": "2 67022  69.9927 299.2722 0003937 272.6811 189.8725 15.90530674  1587"
      },
      "geometry": {
        "type": "Point",
        "coordinates": [
          -60.340073293360405,
          2.923354117803928
        ]
      }
    },
    {
      "type": "Feature",
      "properties": {
        "norad_id": 67023,
        "name": "STARLINK-36191",
        "group": "last-30-days",
        "lat": 5.37048241148596,
        "lon": -59.446882820177514,
        "alt_km": 304.1221017926182,
        "timestamp": "2025-12-21T09:37:21.375081+00:00",
        "meta_object_name": "STARLINK-36191",
        "meta_object_id": "2025-293W",
        "meta_epoch": "2025-12-21T04:00:01.998720",
        "meta_mean_motion": 15.90337184,
        "meta_eccentricity": 0.0004442,
        "meta_inclination": 69.9924,
        "meta_ra_of_asc_node": 299.2685,
        "meta_arg_of_pericenter": 273.1961,
        "meta_mean_anomaly": 191.9801,
        "meta_ephemeris_type": 0,
        "meta_classification_type": "U",
        "meta_norad_cat_id": 67023,
        "meta_element_set_no": 999,
        "meta_rev_at_epoch": 147,
        "meta_bstar": -0.0020205,
        "meta_mean_motion_dot": -0.00617991,
        "meta_mean_motion_ddot": 0.00012188,
        "tle_line1": "1 67023U 25293W   25355.16668980 -.00617991  12188-3 -20205-2 0  9992",
        "tle_line2": "2 67023  69.9924 299.2685 0004442 273.1961 191.9801 15.90337184  1475"
      },
      "geometry": {
        "type": "Point",
        "coordinates": [
          -59.446882820177514,
          5.37048241148596
        ]
      }
    },
    {
      "type": "Feature",
      "properties": {
        "norad_id": 67024,
        "name": "STARLINK-36192",
        "group": "last-30-days",
        "lat": 8.135137183443675,
        "lon": -58.427196064350404,
        "alt_km": 304.25917814621243,
        "timestamp": "2025-12-21T09:37:21.375092+00:00",
        "meta_object_name": "STARLINK-36192",
        "meta_object_id": "2025-293X",
        "meta_epoch": "2025-12-20T22:00:01.999584",
        "meta_mean_motion": 15.91291467,
        "meta_eccentricity": 0.00038967,
        "meta_inclination": 69.9932,
        "meta_ra_of_asc_node": 299.9905,
        "meta_arg_of_pericenter": 268.747,
        "meta_mean_anomaly": 207.8853,
        "meta_ephemeris_type": 0,
        "meta_classification_type": "U",
        "meta_norad_cat_id": 67024,
        "meta_element_set_no": 999,
        "meta_rev_at_epoch": 154,
        "meta_bstar": -0.0043419147,
        "meta_mean_motion_dot": -0.01385749,
        "meta_mean_motion_ddot": 0.00054806922,
        "tle_line1": "1 67024U 25293X   25354.91668981 -.01385749  54807-3 -43419-2 0  9996",
        "tle_line2": "2 67024  69.9932 299.9905 0003896 268.7470 207.8853 15.91291467  1540"
      },
      "geometry": {
        "type": "Point",
        "coordinates": [
          -58.427196064350404,
          8.135137183443675
        ]
      }
    }
  ]
}